start=new Date('2022-12-08T00:00:00.000Z').valueOf();
sats=[{"RA_OF_ASC_NODE":"163.0535","ELEMENT_SET_NO":"999","TLE_LINE2":"2 49434  53.2153 163.0535 0003012  47.1694 312.9551 15.08843818 60340","FILE":"3684212","SEMIMAJOR_AXIS":"6917.869","DECAY_DATE":null,"OBJECT_NAME":"STARLINK-3134","MEAN_MOTION":"15.08843818","APOAPSIS":"541.817","NORAD_CAT_ID":"49434","COUNTRY_CODE":"US","TIME_SYSTEM":"UTC","MEAN_MOTION_DOT":"0.00002461","EPOCH":"2022-12-07T12:22:54.728544","MEAN_ELEMENT_THEORY":"SGP4","PERIAPSIS":"537.650","REV_AT_EPOCH":"6034","BSTAR":"0.00017267000000","GP_ID":"219741242","EPHEMERIS_TYPE":"0","PERIOD":"95.437","SITE":"AFETR","RCS_SIZE":"LARGE","OBJECT_ID":"2021-104AC","MEAN_MOTION_DDOT":"0.0000000000000","CLASSIFICATION_TYPE":"U","ECCENTRICITY":"0.00030120","TLE_LINE1":"1 49434U 21104AC  22341.51591121  .00002461  00000-0  17267-3 0  9998","CENTER_NAME":"EARTH","LAUNCH_DATE":"2021-11-13","REF_FRAME":"TEME","INCLINATION":"53.2153","OBJECT_TYPE":"PAYLOAD","ARG_OF_PERICENTER":"47.1694","MEAN_ANOMALY":"312.9551"},{"INCLINATION":"53.2162","OBJECT_TYPE":"PAYLOAD","MEAN_ANOMALY":"311.8785","ARG_OF_PERICENTER":"48.2426","MEAN_MOTION_DDOT":"0.0000000000000","OBJECT_ID":"2021-104AD","ECCENTRICITY":"0.00025580","CLASSIFICATION_TYPE":"U","SITE":"AFETR","RCS_SIZE":"LARGE","LAUNCH_DATE":"2021-11-13","CENTER_NAME":"EARTH","REF_FRAME":"TEME","TLE_LINE1":"1 49435U 21104AD  22341.75423397 -.00000045  00000-0  15293-4 0  9999","REV_AT_EPOCH":"5957","PERIAPSIS":"537.999","BSTAR":"0.00001529300000","EPOCH":"2022-12-07T18:06:05.815008","MEAN_MOTION_DOT":"-0.00000045","MEAN_ELEMENT_THEORY":"SGP4","PERIOD":"95.438","EPHEMERIS_TYPE":"0","GP_ID":"219741492","SEMIMAJOR_AXIS":"6917.904","OBJECT_NAME":"STARLINK-3117","DECAY_DATE":null,"TLE_LINE2":"2 49435  53.2162 141.9701 0002558  48.2426 311.8785 15.08832319 59574","ELEMENT_SET_NO":"999","RA_OF_ASC_NODE":"141.9701","FILE":"3684212","TIME_SYSTEM":"UTC","COUNTRY_CODE":"US","MEAN_MOTION":"15.08832319","NORAD_CAT_ID":"49435","APOAPSIS":"541.538"},{"PERIOD":"95.437","EPHEMERIS_TYPE":"0","GP_ID":"219742744","REV_AT_EPOCH":"5958","PERIAPSIS":"537.710","BSTAR":"-0.00002199800000","EPOCH":"2022-12-07T19:40:06.064032","MEAN_MOTION_DOT":"-0.00000639","MEAN_ELEMENT_THEORY":"SGP4","TIME_SYSTEM":"UTC","COUNTRY_CODE":"US","MEAN_MOTION":"15.08844320","NORAD_CAT_ID":"49436","APOAPSIS":"541.754","SEMIMAJOR_AXIS":"6917.867","OBJECT_NAME":"STARLINK-3049","DECAY_DATE":null,"TLE_LINE2":"2 49436  53.2183 141.6857 0002923  56.0380 304.0890 15.08844320 59586","ELEMENT_SET_NO":"999","RA_OF_ASC_NODE":"141.6857","FILE":"3684212","OBJECT_TYPE":"PAYLOAD","MEAN_ANOMALY":"304.0890","ARG_OF_PERICENTER":"56.0380","INCLINATION":"53.2183","LAUNCH_DATE":"2021-11-13","CENTER_NAME":"EARTH","REF_FRAME":"TEME","TLE_LINE1":"1 49436U 21104AE  22341.81951463 -.00000639  00000-0 -21998-4 0  9996","OBJECT_ID":"2021-104AE","MEAN_MOTION_DDOT":"0.0000000000000","ECCENTRICITY":"0.00029230","CLASSIFICATION_TYPE":"U","SITE":"AFETR","RCS_SIZE":"LARGE"},{"INCLINATION":"53.2167","OBJECT_TYPE":"PAYLOAD","MEAN_ANOMALY":"314.6852","ARG_OF_PERICENTER":"45.4391","OBJECT_ID":"2021-104AF","MEAN_MOTION_DDOT":"0.0000000000000","ECCENTRICITY":"0.00030870","CLASSIFICATION_TYPE":"U","SITE":"AFETR","RCS_SIZE":"LARGE","LAUNCH_DATE":"2021-11-13","CENTER_NAME":"EARTH","REF_FRAME":"TEME","TLE_LINE1":"1 49437U 21104AF  22341.74591584 -.00000071  00000-0  13661-4 0  9990","REV_AT_EPOCH":"5957","PERIAPSIS":"537.634","BSTAR":"0.00001366100000","EPOCH":"2022-12-07T17:54:07.128576","MEAN_MOTION_DOT":"-0.00000071","MEAN_ELEMENT_THEORY":"SGP4","PERIOD":"95.438","EPHEMERIS_TYPE":"0","GP_ID":"219742992","SEMIMAJOR_AXIS":"6917.904","DECAY_DATE":null,"OBJECT_NAME":"STARLINK-3130","TLE_LINE2":"2 49437  53.2167 142.0176 0003087  45.4391 314.6852 15.08832247 59573","ELEMENT_SET_NO":"999","RA_OF_ASC_NODE":"142.0176","FILE":"3684212","TIME_SYSTEM":"UTC","COUNTRY_CODE":"US","MEAN_MOTION":"15.08832247","NORAD_CAT_ID":"49437","APOAPSIS":"541.905"},{"TLE_LINE1":"1 49438U 21104AG  22341.74222528  .00000374  00000-0  41614-4 0  9994","REF_FRAME":"TEME","LAUNCH_DATE":"2021-11-13","CENTER_NAME":"EARTH","RCS_SIZE":"LARGE","SITE":"AFETR","ECCENTRICITY":"0.00028590","CLASSIFICATION_TYPE":"U","MEAN_MOTION_DDOT":"0.0000000000000","OBJECT_ID":"2021-104AG","MEAN_ANOMALY":"308.3616","ARG_OF_PERICENTER":"51.7633","OBJECT_TYPE":"PAYLOAD","INCLINATION":"53.2171","NORAD_CAT_ID":"49438","APOAPSIS":"541.703","MEAN_MOTION":"15.08846453","TIME_SYSTEM":"UTC","COUNTRY_CODE":"US","FILE":"3684212","TLE_LINE2":"2 49438  53.2171 142.0335 0002859  51.7633 308.3616 15.08846453 59573","RA_OF_ASC_NODE":"142.0335","ELEMENT_SET_NO":"999","DECAY_DATE":null,"OBJECT_NAME":"STARLINK-3044","SEMIMAJOR_AXIS":"6917.861","EPHEMERIS_TYPE":"0","GP_ID":"219741743","PERIOD":"95.437","MEAN_ELEMENT_THEORY":"SGP4","EPOCH":"2022-12-07T17:48:48.264192","MEAN_MOTION_DOT":"0.00000374","BSTAR":"0.00004161400000","REV_AT_EPOCH":"5957","PERIAPSIS":"537.748"},{"REF_FRAME":"TEME","CENTER_NAME":"EARTH","LAUNCH_DATE":"2021-11-13","TLE_LINE1":"1 49439U 21104AH  22341.72383579 -.00001541  00000-0 -78661-4 0  9998","CLASSIFICATION_TYPE":"U","ECCENTRICITY":"0.00034190","MEAN_MOTION_DDOT":"0.0000000000000","OBJECT_ID":"2021-104AH","RCS_SIZE":"LARGE","SITE":"AFETR","ARG_OF_PERICENTER":"50.3129","MEAN_ANOMALY":"309.8165","OBJECT_TYPE":"PAYLOAD","INCLINATION":"53.2156","COUNTRY_CODE":"US","TIME_SYSTEM":"UTC","APOAPSIS":"542.085","NORAD_CAT_ID":"49439","MEAN_MOTION":"15.08848423","OBJECT_NAME":"STARLINK-3108","DECAY_DATE":null,"SEMIMAJOR_AXIS":"6917.855","FILE":"3684212","ELEMENT_SET_NO":"999","RA_OF_ASC_NODE":"142.1154","TLE_LINE2":"2 49439  53.2156 142.1154 0003419  50.3129 309.8165 15.08848423 59579","PERIOD":"95.437","GP_ID":"219741993","EPHEMERIS_TYPE":"0","BSTAR":"-0.00007866100000","PERIAPSIS":"537.354","REV_AT_EPOCH":"5957","MEAN_ELEMENT_THEORY":"SGP4","MEAN_MOTION_DOT":"-0.00001541","EPOCH":"2022-12-07T17:22:19.412256"},{"MEAN_ELEMENT_THEORY":"SGP4","EPOCH":"2022-12-07T11:21:59.460768","MEAN_MOTION_DOT":"0.00003234","BSTAR":"0.00022112000000","REV_AT_EPOCH":"5953","PERIAPSIS":"537.275","EPHEMERIS_TYPE":"0","GP_ID":"219742244","PERIOD":"95.436","FILE":"3684212","TLE_LINE2":"2 49440  53.2150 143.2424 0003496  58.6943 301.4391 15.08857016 59530","ELEMENT_SET_NO":"999","RA_OF_ASC_NODE":"143.2424","DECAY_DATE":null,"OBJECT_NAME":"STARLINK-3105","SEMIMAJOR_AXIS":"6917.828","NORAD_CAT_ID":"49440","APOAPSIS":"542.112","MEAN_MOTION":"15.08857016","TIME_SYSTEM":"UTC","COUNTRY_CODE":"US","INCLINATION":"53.2150","MEAN_ANOMALY":"301.4391","ARG_OF_PERICENTER":"58.6943","OBJECT_TYPE":"PAYLOAD","RCS_SIZE":"LARGE","SITE":"AFETR","ECCENTRICITY":"0.00034960","CLASSIFICATION_TYPE":"U","OBJECT_ID":"2021-104AJ","MEAN_MOTION_DDOT":"0.0000000000000","TLE_LINE1":"1 49440U 21104AJ  22341.47360487  .00003234  00000-0  22112-3 0  9993","REF_FRAME":"TEME","LAUNCH_DATE":"2021-11-13","CENTER_NAME":"EARTH"},{"INCLINATION":"53.2155","OBJECT_TYPE":"PAYLOAD","MEAN_ANOMALY":"304.9765","ARG_OF_PERICENTER":"55.1578","OBJECT_ID":"2021-104AK","MEAN_MOTION_DDOT":"0.0000000000000","ECCENTRICITY":"0.00037350","CLASSIFICATION_TYPE":"U","SITE":"AFETR","RCS_SIZE":"LARGE","LAUNCH_DATE":"2021-11-13","CENTER_NAME":"EARTH","REF_FRAME":"TEME","TLE_LINE1":"1 49441U 21104AK  22341.85262924  .00000686  00000-0  61217-4 0  9991","REV_AT_EPOCH":"5959","PERIAPSIS":"537.137","BSTAR":"0.00006121700000","EPOCH":"2022-12-07T20:27:47.166336","MEAN_MOTION_DOT":"0.00000686","MEAN_ELEMENT_THEORY":"SGP4","PERIOD":"95.437","EPHEMERIS_TYPE":"0","GP_ID":"219742493","SEMIMAJOR_AXIS":"6917.856","OBJECT_NAME":"STARLINK-3128","DECAY_DATE":null,"TLE_LINE2":"2 49441  53.2155 141.5352 0003735  55.1578 304.9765 15.08847969 59594","RA_OF_ASC_NODE":"141.5352","ELEMENT_SET_NO":"999","FILE":"3684212","TIME_SYSTEM":"UTC","COUNTRY_CODE":"US","MEAN_MOTION":"15.08847969","NORAD_CAT_ID":"49441","APOAPSIS":"542.305"},{"PERIOD":"95.438","GP_ID":"219741243","EPHEMERIS_TYPE":"0","PERIAPSIS":"537.720","REV_AT_EPOCH":"5957","BSTAR":"0.00005662300000","MEAN_MOTION_DOT":"0.00000613","EPOCH":"2022-12-07T17:38:12.437088","MEAN_ELEMENT_THEORY":"SGP4","COUNTRY_CODE":"US","TIME_SYSTEM":"UTC","MEAN_MOTION":"15.08839057","APOAPSIS":"541.777","NORAD_CAT_ID":"49442","SEMIMAJOR_AXIS":"6917.883","DECAY_DATE":null,"OBJECT_NAME":"STARLINK-3098","RA_OF_ASC_NODE":"142.0645","ELEMENT_SET_NO":"999","TLE_LINE2":"2 49442  53.2171 142.0645 0002932  51.9112 308.2145 15.08839057 59576","FILE":"3684212","OBJECT_TYPE":"PAYLOAD","ARG_OF_PERICENTER":"51.9112","MEAN_ANOMALY":"308.2145","INCLINATION":"53.2171","CENTER_NAME":"EARTH","LAUNCH_DATE":"2021-11-13","REF_FRAME":"TEME","TLE_LINE1":"1 49442U 21104AL  22341.73486617  .00000613  00000-0  56623-4 0  9991","OBJECT_ID":"2021-104AL","MEAN_MOTION_DDOT":"0.0000000000000","CLASSIFICATION_TYPE":"U","ECCENTRICITY":"0.00029320","SITE":"AFETR","RCS_SIZE":"LARGE"},{"PERIOD":"95.437","GP_ID":"219741493","EPHEMERIS_TYPE":"0","BSTAR":"0.00004721200000","PERIAPSIS":"537.673","REV_AT_EPOCH":"5957","MEAN_ELEMENT_THEORY":"SGP4","MEAN_MOTION_DOT":"0.00000463","EPOCH":"2022-12-07T17:11:43.472832","COUNTRY_CODE":"US","TIME_SYSTEM":"UTC","APOAPSIS":"541.794","NORAD_CAT_ID":"49443","MEAN_MOTION":"15.08843864","DECAY_DATE":null,"OBJECT_NAME":"STARLINK-3136","SEMIMAJOR_AXIS":"6917.869","FILE":"3684212","ELEMENT_SET_NO":"999","RA_OF_ASC_NODE":"142.1397","TLE_LINE2":"2 49443  53.2156 142.1397 0002978  50.0631 310.0623 15.08843864 59574","ARG_OF_PERICENTER":"50.0631","MEAN_ANOMALY":"310.0623","OBJECT_TYPE":"PAYLOAD","INCLINATION":"53.2156","REF_FRAME":"TEME","CENTER_NAME":"EARTH","LAUNCH_DATE":"2021-11-13","TLE_LINE1":"1 49443U 21104AM  22341.71647538  .00000463  00000-0  47212-4 0  9998","CLASSIFICATION_TYPE":"U","ECCENTRICITY":"0.00029780","OBJECT_ID":"2021-104AM","MEAN_MOTION_DDOT":"0.0000000000000","RCS_SIZE":"LARGE","SITE":"AFETR"}];
